{
  "type": "FeatureCollection",
  "features": [
    {
      "type": "Feature",
      "properties": {
        "norad_id": 38474,
        "name": "IRIDIUM 33 DEB",
        "group": "iridium-33-debris",
        "lat": 38.94881995717966,
        "lon": 14.03801301025138,
        "alt_km": 709.2597990634195,
        "timestamp": "2025-12-10T09:57:45.083886+00:00",
        "meta_object_name": "IRIDIUM 33 DEB",
        "meta_object_id": "1997-051AAB",
        "meta_epoch": "2025-12-08T08:07:09.463872",
        "meta_mean_motion": 14.50663948,
        "meta_eccentricity": 0.00281226,
        "meta_inclination": 86.3436,
        "meta_ra_of_asc_node": 11.9798,
        "meta_arg_of_pericenter": 101.673,
        "meta_mean_anomaly": 258.7634,
        "meta_ephemeris_type": 0,
        "meta_classification_type": "U",
        "meta_norad_cat_id": 38474,
        "meta_element_set_no": 999,
        "meta_rev_at_epoch": 65254,
        "meta_bstar": 0.0008115799,
        "meta_mean_motion_dot": 3.222e-05,
        "meta_mean_motion_ddot": 0,
        "tle_line1": "1 38474U 97051AAB 25342.33830398  .00003222  00000+0  81158-3 0  9995",
        "tle_line2": "2 38474  86.3436  11.9798 0028122 101.6730 258.7634 14.50663948652549"
      },
      "geometry": {
        "type": "Point",
        "coordinates": [
          14.03801301025138,
          38.94881995717966
        ]
      }
    },
    {
      "type": "Feature",
      "properties": {
        "norad_id": 39777,
        "name": "IRIDIUM 33 DEB",
        "group": "iridium-33-debris",
        "lat": 37.70480964829723,
        "lon": 179.30038576667818,
        "alt_km": 741.1354111381943,
        "timestamp": "2025-12-10T09:57:45.083896+00:00",
        "meta_object_name": "IRIDIUM 33 DEB",
        "meta_object_id": "1997-051AAJ",
        "meta_epoch": "2025-12-09T12:20:58.659648",
        "meta_mean_motion": 14.56304197,
        "meta_eccentricity": 0.00597111,
        "meta_inclination": 85.9626,
        "meta_ra_of_asc_node": 176.6076,
        "meta_arg_of_pericenter": 197.4862,
        "meta_mean_anomaly": 162.4291,
        "meta_ephemeris_type": 0,
        "meta_classification_type": "U",
        "meta_norad_cat_id": 39777,
        "meta_element_set_no": 999,
        "meta_rev_at_epoch": 60138,
        "meta_bstar": 0.0037430645,
        "meta_mean_motion_dot": 0.00017025,
        "meta_mean_motion_ddot": 0,
        "tle_line1": "1 39777U 97051AAJ 25343.51456782  .00017025  00000+0  37431-2 0  9994",
        "tle_line2": "2 39777  85.9626 176.6076 0059711 197.4862 162.4291 14.56304197601387"
      },
      "geometry": {
        "type": "Point",
        "coordinates": [
          179.30038576667818,
          37.70480964829723
        ]
      }
    },
    {
      "type": "Feature",
      "properties": {
        "norad_id": 39778,
        "name": "IRIDIUM 33 DEB",
        "group": "iridium-33-debris",
        "lat": -70.69681401537756,
        "lon": -125.34495311527735,
        "alt_km": 724.6633223416839,
        "timestamp": "2025-12-10T09:57:45.083906+00:00",
        "meta_object_name": "IRIDIUM 33 DEB",
        "meta_object_id": "1997-051AAK",
        "meta_epoch": "2025-12-09T14:38:46.743072",
        "meta_mean_motion": 14.5422784,
        "meta_eccentricity": 0.000831,
        "meta_inclination": 86.3774,
        "meta_ra_of_asc_node": 44.5837,
        "meta_arg_of_pericenter": 51.0952,
        "meta_mean_anomaly": 309.0995,
        "meta_ephemeris_type": 0,
        "meta_classification_type": "U",
        "meta_norad_cat_id": 39778,
        "meta_element_set_no": 999,
        "meta_rev_at_epoch": 60647,
        "meta_bstar": 0.0013888,
        "meta_mean_motion_dot": 5.904e-05,
        "meta_mean_motion_ddot": 0,
        "tle_line1": "1 39778U 97051AAK 25343.61026323  .00005904  00000+0  13888-2 0  9993",
        "tle_line2": "2 39778  86.3774  44.5837 0008310  51.0952 309.0995 14.54227840606471"
      },
      "geometry": {
        "type": "Point",
        "coordinates": [
          -125.34495311527735,
          -70.69681401537756
        ]
      }
    },
    {
      "type": "Feature",
      "properties": {
        "norad_id": 39781,
        "name": "IRIDIUM 33 DEB",
        "group": "iridium-33-debris",
        "lat": -71.32771040648092,
        "lon": -111.88982155289347,
        "alt_km": 703.817214629009,
        "timestamp": "2025-12-10T09:57:45.083916+00:00",
        "meta_object_name": "IRIDIUM 33 DEB",
        "meta_object_id": "1997-051AAN",
        "meta_epoch": "2025-12-09T13:09:45.576288",
        "meta_mean_motion": 14.20481305,
        "meta_eccentricity": 0.0178151,
        "meta_inclination": 86.3699,
        "meta_ra_of_asc_node": 259.2946,
        "meta_arg_of_pericenter": 283.4405,
        "meta_mean_anomaly": 255.4968,
        "meta_ephemeris_type": 0,
        "meta_classification_type": "U",
        "meta_norad_cat_id": 39781,
        "meta_element_set_no": 999,
        "meta_rev_at_epoch": 8061,
        "meta_bstar": 0.0082391,
        "meta_mean_motion_dot": 0.00020802,
        "meta_mean_motion_ddot": 0,
        "tle_line1": "1 39781U 97051AAN 25343.54844417  .00020802  00000+0  82391-2 0  9990",
        "tle_line2": "2 39781  86.3699 259.2946 0178151 283.4405 255.4968 14.20481305 80619"
      },
      "geometry": {
        "type": "Point",
        "coordinates": [
          -111.88982155289347,
          -71.32771040648092
        ]
      }
    },
    {
      "type": "Feature",
      "properties": {
        "norad_id": 39783,
        "name": "IRIDIUM 33 DEB",
        "group": "iridium-33-debris",
        "lat": 14.432361330287366,
        "lon": -102.50992375945202,
        "alt_km": 471.7950427253809,
        "timestamp": "2025-12-10T09:57:45.083927+00:00",
        "meta_object_name": "IRIDIUM 33 DEB",
        "meta_object_id": "1997-051AAQ",
        "meta_epoch": "2025-11-16T15:05:40.850592",
        "meta_mean_motion": 15.19327111,
        "meta_eccentricity": 0.00057535,
        "meta_inclination": 86.1306,
        "meta_ra_of_asc_node": 268.8004,
        "meta_arg_of_pericenter": 179.9151,
        "meta_mean_anomaly": 1.8316,
        "meta_ephemeris_type": 0,
        "meta_classification_type": "U",
        "meta_norad_cat_id": 39783,
        "meta_element_set_no": 999,
        "meta_rev_at_epoch": 60401,
        "meta_bstar": 0.010398125,
        "meta_mean_motion_dot": 0.00226179,
        "meta_mean_motion_ddot": 0,
        "tle_line1": "1 39783U 97051AAQ 25320.62894503  .00226179  00000+0  10398-1 0  9999",
        "tle_line2": "2 39783  86.1306 268.8004 0005753 179.9151   1.8316 15.19327111604018"
      },
      "geometry": {
        "type": "Point",
        "coordinates": [
          -102.50992375945202,
          14.432361330287366
        ]
      }
    },
    {
      "type": "Feature",
      "properties": {
        "norad_id": 40996,
        "name": "IRIDIUM 33 DEB",
        "group": "iridium-33-debris",
        "lat": -6.184656531739985,
        "lon": -177.10859148319108,
        "alt_km": 586.94917535685,
        "timestamp": "2025-12-10T09:57:45.083938+00:00",
        "meta_object_name": "IRIDIUM 33 DEB",
        "meta_object_id": "1997-051ABJ",
        "meta_epoch": "2025-12-09T19:28:10.177824",
        "meta_mean_motion": 14.95954954,
        "meta_eccentricity": 0.0012147,
        "meta_inclination": 86.3518,
        "meta_ra_of_asc_node": 2.7772,
        "meta_arg_of_pericenter": 71.5463,
        "meta_mean_anomaly": 104.382,
        "meta_ephemeris_type": 0,
        "meta_classification_type": "U",
        "meta_norad_cat_id": 40996,
        "meta_element_set_no": 999,
        "meta_rev_at_epoch": 62444,
        "meta_bstar": 0.0038127,
        "meta_mean_motion_dot": 0.00042994,
        "meta_mean_motion_ddot": 0,
        "tle_line1": "1 40996U 97051ABJ 25343.81122891  .00042994  00000+0  38127-2 0  9999",
        "tle_line2": "2 40996  86.3518   2.7772 0012147  71.5463 104.3820 14.95954954624440"
      },
      "geometry": {
        "type": "Point",
        "coordinates": [
          -177.10859148319108,
          -6.184656531739985
        ]
      }
    },
    {
      "type": "Feature",
      "properties": {
        "norad_id": 40998,
        "name": "IRIDIUM 33 DEB",
        "group": "iridium-33-debris",
        "lat": -12.99070216561788,
        "lon": 53.81248071051358,
        "alt_km": 747.8770051710653,
        "timestamp": "2025-12-10T09:57:45.083948+00:00",
        "meta_object_name": "IRIDIUM 33 DEB",
        "meta_object_id": "1997-051ABL",
        "meta_epoch": "2025-12-09T22:57:49.203072",
        "meta_mean_motion": 14.45082428,
        "meta_eccentricity": 0.0009572,
        "meta_inclination": 86.3826,
        "meta_ra_of_asc_node": 54.8444,
        "meta_arg_of_pericenter": 91.708,
        "meta_mean_anomaly": 32.8835,
        "meta_ephemeris_type": 0,
        "meta_classification_type": "U",
        "meta_norad_cat_id": 40998,
        "meta_element_set_no": 999,
        "meta_rev_at_epoch": 6641,
        "meta_bstar": 0.00070534,
        "meta_mean_motion_dot": 2.485e-05,
        "meta_mean_motion_ddot": 0,
        "tle_line1": "1 40998U 97051ABL 25343.95681948  .00002485  00000+0  70534-3 0  9999",
        "tle_line2": "2 40998  86.3826  54.8444 0009572  91.7080  32.8835 14.45082428 66416"
      },
      "geometry": {
        "type": "Point",
        "coordinates": [
          53.81248071051358,
          -12.99070216561788
        ]
      }
    }
  ]
}